{
    "links": {
        "self": "http://www.neowsapp.com/rest/v1/neo/3838209?api_key=iIulBulltgU6a56xZRHN4H3l9WmuAYTsLGpBGhQ2"
    },
    "id": "3838209",
    "neo_reference_id": "3838209",
    "name": "(2019 CA3)",
    "designation": "2019 CA3",
    "nasa_jpl_url": "http://ssd.jpl.nasa.gov/sbdb.cgi?sstr=3838209",
    "absolute_magnitude_h": 25.9,
    "estimated_diameter": {
        "kilometers": {
            "estimated_diameter_min": 0.0175612318,
            "estimated_diameter_max": 0.0392681082
        },
        "meters": {
            "estimated_diameter_min": 17.561231848,
            "estimated_diameter_max": 39.2681081809
        },
        "miles": {
            "estimated_diameter_min": 0.0109120402,
            "estimated_diameter_max": 0.0244000636
        },
        "feet": {
            "estimated_diameter_min": 57.6155918963,
            "estimated_diameter_max": 128.8323800441
        }
    },
    "is_potentially_hazardous_asteroid": false,
    "close_approach_data": [
        {
            "close_approach_date": "1973-07-23",
            "close_approach_date_full": "1973-Jul-23 22:06",
            "epoch_date_close_approach": 112313160000,
            "relative_velocity": {
                "kilometers_per_second": "19.4908576946",
                "kilometers_per_hour": "70167.0877003886",
                "miles_per_hour": "43599.0995769443"
            },
            "miss_distance": {
                "astronomical": "0.0300479112",
                "lunar": "11.6886374568",
                "kilometers": "4495103.513469144",
                "miles": "2793127.8042124272"
            },
            "orbiting_body": "Earth"
        },
        {
            "close_approach_date": "2019-02-03",
            "close_approach_date_full": "2019-Feb-03 14:24",
            "epoch_date_close_approach": 1549203840000,
            "relative_velocity": {
                "kilometers_per_second": "19.2470661218",
                "kilometers_per_hour": "69289.4380384386",
                "miles_per_hour": "43053.7622078287"
            },
            "miss_distance": {
                "astronomical": "0.012250393",
                "lunar": "4.765402877",
                "kilometers": "1832632.69946291",
                "miles": "1138745.155131758"
            },
            "orbiting_body": "Earth"
        },
        {
            "close_approach_date": "2056-10-07",
            "close_approach_date_full": "2056-Oct-07 09:47",
            "epoch_date_close_approach": 2738137620000,
            "relative_velocity": {
                "kilometers_per_second": "18.2959561629",
                "kilometers_per_hour": "65865.4421862769",
                "miles_per_hour": "40926.2243406897"
            },
            "miss_distance": {
                "astronomical": "0.3981071359",
                "lunar": "154.8636758651",
                "kilometers": "59555979.562440533",
                "miles": "37006369.6919360354"
            },
            "orbiting_body": "Earth"
        },
        {
            "close_approach_date": "2058-07-20",
            "close_approach_date_full": "2058-Jul-20 18:39",
            "epoch_date_close_approach": 2794415940000,
            "relative_velocity": {
                "kilometers_per_second": "21.8523643562",
                "kilometers_per_hour": "78668.5116822001",
                "miles_per_hour": "48881.5538283093"
            },
            "miss_distance": {
                "astronomical": "0.1025943448",
                "lunar": "39.9092001272",
                "kilometers": "15347895.456125576",
                "miles": "9536740.0119259088"
            },
            "orbiting_body": "Earth"
        }
    ],
    "orbital_data": {
        "orbit_id": "1",
        "orbit_determination_date": "2019-02-10 08:12:10",
        "first_observation_date": "2019-02-08",
        "last_observation_date": "2019-02-10",
        "data_arc_in_days": 2,
        "observations_used": 20,
        "orbit_uncertainty": "8",
        "minimum_orbit_intersection": ".0064945",
        "jupiter_tisserand_invariant": "4.249",
        "epoch_osculation": "2458523.5",
        "eccentricity": ".6211358599301919",
        "semi_major_axis": "1.529901563215214",
        "inclination": "4.254645650161979",
        "ascending_node_longitude": "318.670316534815",
        "orbital_period": "691.1839732629106",
        "perihelion_distance": ".5796248401389872",
        "perihelion_argument": "80.59219366161182",
        "aphelion_distance": "2.480178286291441",
        "perihelion_time": "2458468.389763496799",
        "mean_anomaly": "28.70391373152658",
        "mean_motion": ".520845410087459",
        "equinox": "J2000",
        "orbit_class": {
            "orbit_class_type": "APO",
            "orbit_class_description": "Near-Earth asteroid orbits which cross the Earth’s orbit similar to that of 1862 Apollo",
            "orbit_class_range": "a (semi-major axis) > 1.0 AU; q (perihelion) < 1.017 AU"
        }
    },
    "is_sentry_object": false
}